[{"OBJECT_NAME":"ONEWEB-0240","OBJECT_ID":"2021-045U","EPOCH":"2025-09-01T05:47:17.132064","MEAN_MOTION":13.15547654,"ECCENTRICITY":0.00014998,"INCLINATION":87.9058,"RA_OF_ASC_NODE":316.8065,"ARG_OF_PERICENTER":98.8067,"MEAN_ANOMALY":261.3233,"EPHEMERIS_TYPE":0,"CLASSIFICATION_TYPE":"U","NORAD_CAT_ID":48785,"ELEMENT_SET_NO":999,"REV_AT_EPOCH":20641,"BSTAR":-0.00017210378,"MEAN_MOTION_DOT":-5.2e-7,"MEAN_MOTION_DDOT":0},{"OBJECT_NAME":"ONEWEB-0246","OBJECT_ID":"2021-045V","EPOCH":"2025-09-01T05:39:18.378432","MEAN_MOTION":13.15548821,"ECCENTRICITY":0.00018919,"INCLINATION":87.9061,"RA_OF_ASC_NODE":316.8199,"ARG_OF_PERICENTER":92.7608,"MEAN_ANOMALY":267.3739,"EPHEMERIS_TYPE":0,"CLASSIFICATION_TYPE":"U","NORAD_CAT_ID":48786,"ELEMENT_SET_NO":999,"REV_AT_EPOCH":20628,"BSTAR":-0.00030030504,"MEAN_MOTION_DOT":-1.0e-6,"MEAN_MOTION_DDOT":0},{"OBJECT_NAME":"ONEWEB-0210","OBJECT_ID":"2021-045W","EPOCH":"2025-09-01T06:52:19.432128","MEAN_MOTION":13.15548559,"ECCENTRICITY":0.00017855,"INCLINATION":87.9062,"RA_OF_ASC_NODE":316.8092,"ARG_OF_PERICENTER":75.3596,"MEAN_ANOMALY":284.7732,"EPHEMERIS_TYPE":0,"CLASSIFICATION_TYPE":"U","NORAD_CAT_ID":48787,"ELEMENT_SET_NO":999,"REV_AT_EPOCH":20633,"BSTAR":0.00013255423,"MEAN_MOTION_DOT":6.3e-7,"MEAN_MOTION_DDOT":0},{"OBJECT_NAME":"ONEWEB-0214","OBJECT_ID":"2021-045X","EPOCH":"2025-09-01T07:04:51.151008","MEAN_MOTION":13.15547962,"ECCENTRICITY":0.00019615,"INCLINATION":87.9059,"RA_OF_ASC_NODE":316.7953,"ARG_OF_PERICENTER":83.1392,"MEAN_ANOMALY":276.9961,"EPHEMERIS_TYPE":0,"CLASSIFICATION_TYPE":"U","NORAD_CAT_ID":48788,"ELEMENT_SET_NO":999,"REV_AT_EPOCH":20630,"BSTAR":6.8759995e-5,"MEAN_MOTION_DOT":3.9e-7,"MEAN_MOTION_DDOT":0},{"OBJECT_NAME":"ONEWEB-0221","OBJECT_ID":"2021-045Y","EPOCH":"2025-09-01T05:25:37.343424","MEAN_MOTION":13.15549738,"ECCENTRICITY":0.00016992,"INCLINATION":87.9047,"RA_OF_ASC_NODE":316.8355,"ARG_OF_PERICENTER":93.3851,"MEAN_ANOMALY":266.7474,"EPHEMERIS_TYPE":0,"CLASSIFICATION_TYPE":"U","NORAD_CAT_ID":48789,"ELEMENT_SET_NO":999,"REV_AT_EPOCH":20638,"BSTAR":-0.00026051772,"MEAN_MOTION_DOT":-8.5e-7,"MEAN_MOTION_DDOT":0},{"OBJECT_NAME":"ONEWEB-0213","OBJECT_ID":"2021-045Z","EPOCH":"2025-09-01T05:09:38.957472","MEAN_MOTION":13.15548522,"ECCENTRICITY":0.00017169,"INCLINATION":87.9051,"RA_OF_ASC_NODE":316.8463,"ARG_OF_PERICENTER":89.5312,"MEAN_ANOMALY":270.6015,"EPHEMERIS_TYPE":0,"CLASSIFICATION_TYPE":"U","NORAD_CAT_ID":48790,"ELEMENT_SET_NO":999,"REV_AT_EPOCH":20644,"BSTAR":-1.6600774e-5,"MEAN_MOTION_DOT":7.0e-8,"MEAN_MOTION_DDOT":0},{"OBJECT_NAME":"ONEWEB-0212","OBJECT_ID":"2021-045AA","EPOCH":"2025-09-01T06:26:05.147232","MEAN_MOTION":13.15547985,"ECCENTRICITY":0.00018377,"INCLINATION":87.9056,"RA_OF_ASC_NODE":316.8182,"ARG_OF_PERICENTER":98.6156,"MEAN_ANOMALY":261.5183,"EPHEMERIS_TYPE":0,"CLASSIFICATION_TYPE":"U","NORAD_CAT_ID":48791,"ELEMENT_SET_NO":999,"REV_AT_EPOCH":20644,"BSTAR":0.00034944949,"MEAN_MOTION_DOT":1.44e-6,"MEAN_MOTION_DDOT":0},{"OBJECT_NAME":"ONEWEB-0227","OBJECT_ID":"2021-045AB","EPOCH":"2025-09-01T06:24:56.450592","MEAN_MOTION":13.15548196,"ECCENTRICITY":0.0001734,"INCLINATION":87.9049,"RA_OF_ASC_NODE":316.8374,"ARG_OF_PERICENTER":95.19,"MEAN_ANOMALY":264.9428,"EPHEMERIS_TYPE":0,"CLASSIFICATION_TYPE":"U","NORAD_CAT_ID":48792,"ELEMENT_SET_NO":999,"REV_AT_EPOCH":20639,"BSTAR":0.00029575521,"MEAN_MOTION_DOT":1.24e-6,"MEAN_MOTION_DDOT":0},{"OBJECT_NAME":"ONEWEB-0226","OBJECT_ID":"2021-045AC","EPOCH":"2025-09-01T06:15:49.339872","MEAN_MOTION":13.15531844,"ECCENTRICITY":0.00015923,"INCLINATION":87.9053,"RA_OF_ASC_NODE":316.8453,"ARG_OF_PERICENTER":99.0412,"MEAN_ANOMALY":261.0899,"EPHEMERIS_TYPE":0,"CLASSIFICATION_TYPE":"U","NORAD_CAT_ID":48793,"ELEMENT_SET_NO":999,"REV_AT_EPOCH":20636,"BSTAR":0.0089792912,"MEAN_MOTION_DOT":3.394e-5,"MEAN_MOTION_DDOT":0},{"OBJECT_NAME":"ONEWEB-0224","OBJECT_ID":"2021-045AD","EPOCH":"2025-09-01T05:23:20.081472","MEAN_MOTION":13.1554862,"ECCENTRICITY":0.00011847,"INCLINATION":87.9052,"RA_OF_ASC_NODE":316.8882,"ARG_OF_PERICENTER":124.0378,"MEAN_ANOMALY":236.0865,"EPHEMERIS_TYPE":0,"CLASSIFICATION_TYPE":"U","NORAD_CAT_ID":48794,"ELEMENT_SET_NO":999,"REV_AT_EPOCH":20628,"BSTAR":-0.00014677557,"MEAN_MOTION_DOT":-4.2e-7,"MEAN_MOTION_DDOT":0},{"OBJECT_NAME":"ONEWEB-0233","OBJECT_ID":"2021-045AE","EPOCH":"2025-09-01T05:29:58.278336","MEAN_MOTION":13.15547993,"ECCENTRICITY":0.00015525,"INCLINATION":87.9058,"RA_OF_ASC_NODE":316.8978,"ARG_OF_PERICENTER":94.8571,"MEAN_ANOMALY":265.2737,"EPHEMERIS_TYPE":0,"CLASSIFICATION_TYPE":"U","NORAD_CAT_ID":48795,"ELEMENT_SET_NO":999,"REV_AT_EPOCH":20630,"BSTAR":-0.00038780859,"MEAN_MOTION_DOT":-1.33e-6,"MEAN_MOTION_DDOT":0},{"OBJECT_NAME":"ONEWEB-0190","OBJECT_ID":"2021-045AF","EPOCH":"2025-09-01T05:11:55.780512","MEAN_MOTION":13.15550151,"ECCENTRICITY":0.00013746,"INCLINATION":87.9055,"RA_OF_ASC_NODE":316.8635,"ARG_OF_PERICENTER":74.8361,"MEAN_ANOMALY":285.2921,"EPHEMERIS_TYPE":0,"CLASSIFICATION_TYPE":"U","NORAD_CAT_ID":48796,"ELEMENT_SET_NO":999,"REV_AT_EPOCH":20637,"BSTAR":-8.8546243e-5,"MEAN_MOTION_DOT":-2.1e-7,"MEAN_MOTION_DDOT":0},{"OBJECT_NAME":"ONEWEB-0236","OBJECT_ID":"2021-045AG","EPOCH":"2025-09-01T05:37:02.105760","MEAN_MOTION":13.15548916,"ECCENTRICITY":0.00019498,"INCLINATION":87.9052,"RA_OF_ASC_NODE":316.8708,"ARG_OF_PERICENTER":101.5903,"MEAN_ANOMALY":258.5446,"EPHEMERIS_TYPE":0,"CLASSIFICATION_TYPE":"U","NORAD_CAT_ID":48797,"ELEMENT_SET_NO":999,"REV_AT_EPOCH":20626,"BSTAR":-0.00023188304,"MEAN_MOTION_DOT":-7.4e-7,"MEAN_MOTION_DDOT":0},{"OBJECT_NAME":"ONEWEB-0248","OBJECT_ID":"2021-045AH","EPOCH":"2025-09-01T05:55:16.761792","MEAN_MOTION":13.15548998,"ECCENTRICITY":0.00012262,"INCLINATION":87.9059,"RA_OF_ASC_NODE":316.8222,"ARG_OF_PERICENTER":99.3491,"MEAN_ANOMALY":260.7778,"EPHEMERIS_TYPE":0,"CLASSIFICATION_TYPE":"U","NORAD_CAT_ID":48798,"ELEMENT_SET_NO":999,"REV_AT_EPOCH":20642,"BSTAR":-0.00012552169,"MEAN_MOTION_DOT":-3.4e-7,"MEAN_MOTION_DDOT":0},{"OBJECT_NAME":"ONEWEB-0225","OBJECT_ID":"2021-045AJ","EPOCH":"2025-09-01T06:27:13.964832","MEAN_MOTION":13.15548811,"ECCENTRICITY":0.00014218,"INCLINATION":87.9057,"RA_OF_ASC_NODE":316.8494,"ARG_OF_PERICENTER":80.883,"MEAN_ANOMALY":279.2461,"EPHEMERIS_TYPE":0,"CLASSIFICATION_TYPE":"U","NORAD_CAT_ID":48799,"ELEMENT_SET_NO":999,"REV_AT_EPOCH":20643,"BSTAR":0.0002382127,"MEAN_MOTION_DOT":1.02e-6,"MEAN_MOTION_DDOT":0},{"OBJECT_NAME":"ONEWEB-0215","OBJECT_ID":"2021-045AK","EPOCH":"2025-09-01T05:43:51.722112","MEAN_MOTION":13.15548007,"ECCENTRICITY":0.00012301,"INCLINATION":87.9062,"RA_OF_ASC_NODE":316.8066,"ARG_OF_PERICENTER":86.2146,"MEAN_ANOMALY":273.9125,"EPHEMERIS_TYPE":0,"CLASSIFICATION_TYPE":"U","NORAD_CAT_ID":48800,"ELEMENT_SET_NO":999,"REV_AT_EPOCH":20630,"BSTAR":-0.00037958043,"MEAN_MOTION_DOT":-1.3e-6,"MEAN_MOTION_DDOT":0}]
