ONEWEB-0240             
1 48785U 21045U   25244.24117051 -.00000052  00000+0 -17210-3 0  9994
2 48785  87.9058 316.8065 0001499  98.8067 261.3233 13.15547654206415
ONEWEB-0246             
1 48786U 21045V   25244.23562938 -.00000100  00000+0 -30031-3 0  9992
2 48786  87.9061 316.8199 0001891  92.7608 267.3739 13.15548821206287
ONEWEB-0210             
1 48787U 21045W   25244.28633602  .00000063  00000+0  13255-3 0  9990
2 48787  87.9062 316.8092 0001785  75.3596 284.7732 13.15548559206336
ONEWEB-0214             
1 48788U 21045X   25244.29503647  .00000039  00000+0  68760-4 0  9992
2 48788  87.9059 316.7953 0001961  83.1392 276.9961 13.15547962206306
ONEWEB-0221             
1 48789U 21045Y   25244.22612666 -.00000085  00000+0 -26052-3 0  9998
2 48789  87.9047 316.8355 0001699  93.3851 266.7474 13.15549738206389
ONEWEB-0213             
1 48790U 21045Z   25244.21503423  .00000007  00000+0 -16601-4 0  9992
2 48790  87.9051 316.8463 0001716  89.5312 270.6015 13.15548522206447
ONEWEB-0212             
1 48791U 21045AA  25244.26811513  .00000144  00000+0  34945-3 0  9991
2 48791  87.9056 316.8182 0001837  98.6156 261.5183 13.15547985206449
ONEWEB-0227             
1 48792U 21045AB  25244.26732003  .00000124  00000+0  29576-3 0  9990
2 48792  87.9049 316.8374 0001734  95.1900 264.9428 13.15548196206398
ONEWEB-0226             
1 48793U 21045AC  25244.26098773  .00003394  00000+0  89793-2 0  9998
2 48793  87.9053 316.8453 0001592  99.0412 261.0899 13.15531844206364
ONEWEB-0224             
1 48794U 21045AD  25244.22453798 -.00000042  00000+0 -14678-3 0  9997
2 48794  87.9052 316.8882 0001184 124.0378 236.0865 13.15548620206283
ONEWEB-0233             
1 48795U 21045AE  25244.22914674 -.00000133  00000+0 -38781-3 0  9995
2 48795  87.9058 316.8978 0001552  94.8571 265.2737 13.15547993206301
ONEWEB-0190             
1 48796U 21045AF  25244.21661783 -.00000021  00000+0 -88546-4 0  9996
2 48796  87.9055 316.8635 0001374  74.8361 285.2921 13.15550151206370
ONEWEB-0236             
1 48797U 21045AG  25244.23405215 -.00000074  00000+0 -23188-3 0  9993
2 48797  87.9052 316.8708 0001949 101.5903 258.5446 13.15548916206266
ONEWEB-0248             
1 48798U 21045AH  25244.24672178 -.00000034  00000+0 -12552-3 0  9998
2 48798  87.9059 316.8222 0001226  99.3491 260.7778 13.15548998206420
ONEWEB-0225             
1 48799U 21045AJ  25244.26891163  .00000102  00000+0  23821-3 0  9993
2 48799  87.9057 316.8494 0001421  80.8830 279.2461 13.15548811206438
ONEWEB-0215             
1 48800U 21045AK  25244.23879308 -.00000130  00000+0 -37958-3 0  9999
2 48800  87.9062 316.8066 0001230  86.2146 273.9125 13.15548007206301
